[{"OBJECT_NAME":"O3B FM5","OBJECT_ID":"2013-031A","EPOCH":"2026-04-04T21:07:25.754016","MEAN_MOTION":5.00116539,"ECCENTRICITY":0.00032275,"INCLINATION":0.1018,"RA_OF_ASC_NODE":5.7561,"ARG_OF_PERICENTER":358.382,"MEAN_ANOMALY":355.8634,"EPHEMERIS_TYPE":0,"CLASSIFICATION_TYPE":"U","NORAD_CAT_ID":39188,"ELEMENT_SET_NO":999,"REV_AT_EPOCH":23337,"BSTAR":0,"MEAN_MOTION_DOT":-2.6e-7,"MEAN_MOTION_DDOT":0},{"OBJECT_NAME":"O3B FM4","OBJECT_ID":"2013-031B","EPOCH":"2026-03-27T09:41:53.263680","MEAN_MOTION":5.00115128,"ECCENTRICITY":0.00050688,"INCLINATION":0.0535,"RA_OF_ASC_NODE":345.5776,"ARG_OF_PERICENTER":27.4764,"MEAN_ANOMALY":346.9547,"EPHEMERIS_TYPE":0,"CLASSIFICATION_TYPE":"U","NORAD_CAT_ID":39189,"ELEMENT_SET_NO":999,"REV_AT_EPOCH":23295,"BSTAR":0,"MEAN_MOTION_DOT":-2.8e-7,"MEAN_MOTION_DDOT":0},{"OBJECT_NAME":"O3B FM2","OBJECT_ID":"2013-031C","EPOCH":"2026-04-04T20:45:47.682144","MEAN_MOTION":5.00116057,"ECCENTRICITY":0.00027707,"INCLINATION":0.0514,"RA_OF_ASC_NODE":339.0477,"ARG_OF_PERICENTER":33.0431,"MEAN_ANOMALY":347.9145,"EPHEMERIS_TYPE":0,"CLASSIFICATION_TYPE":"U","NORAD_CAT_ID":39190,"ELEMENT_SET_NO":999,"REV_AT_EPOCH":23344,"BSTAR":0,"MEAN_MOTION_DOT":-2.6e-7,"MEAN_MOTION_DDOT":0},{"OBJECT_NAME":"O3B PFM","OBJECT_ID":"2013-031D","EPOCH":"2026-04-05T01:53:57.706368","MEAN_MOTION":5.00116068,"ECCENTRICITY":0.00054,"INCLINATION":0.0701,"RA_OF_ASC_NODE":3.8026,"ARG_OF_PERICENTER":16.8934,"MEAN_ANOMALY":339.3246,"EPHEMERIS_TYPE":0,"CLASSIFICATION_TYPE":"U","NORAD_CAT_ID":39191,"ELEMENT_SET_NO":999,"REV_AT_EPOCH":23301,"BSTAR":0,"MEAN_MOTION_DOT":-2.5e-7,"MEAN_MOTION_DDOT":0},{"OBJECT_NAME":"O3B FM3","OBJECT_ID":"2014-038A","EPOCH":"2026-04-04T13:06:23.738112","MEAN_MOTION":5.00115652,"ECCENTRICITY":0.0001028,"INCLINATION":0.0526,"RA_OF_ASC_NODE":354.6808,"ARG_OF_PERICENTER":86.2225,"MEAN_ANOMALY":279.1068,"EPHEMERIS_TYPE":0,"CLASSIFICATION_TYPE":"U","NORAD_CAT_ID":40079,"ELEMENT_SET_NO":999,"REV_AT_EPOCH":20936,"BSTAR":0,"MEAN_MOTION_DOT":-2.6e-7,"MEAN_MOTION_DDOT":0},{"OBJECT_NAME":"O3B FM7","OBJECT_ID":"2014-038B","EPOCH":"2026-04-03T21:25:14.686176","MEAN_MOTION":5.00115689,"ECCENTRICITY":0.00042766,"INCLINATION":0.0568,"RA_OF_ASC_NODE":348.1667,"ARG_OF_PERICENTER":10.66,"MEAN_ANOMALY":1.1706,"EPHEMERIS_TYPE":0,"CLASSIFICATION_TYPE":"U","NORAD_CAT_ID":40080,"ELEMENT_SET_NO":999,"REV_AT_EPOCH":21416,"BSTAR":0,"MEAN_MOTION_DOT":-2.6e-7,"MEAN_MOTION_DDOT":0},{"OBJECT_NAME":"O3B FM6","OBJECT_ID":"2014-038C","EPOCH":"2026-04-04T22:03:20.173536","MEAN_MOTION":5.00115747,"ECCENTRICITY":0.00026409,"INCLINATION":0.0537,"RA_OF_ASC_NODE":351.8755,"ARG_OF_PERICENTER":21.2942,"MEAN_ANOMALY":346.8359,"EPHEMERIS_TYPE":0,"CLASSIFICATION_TYPE":"U","NORAD_CAT_ID":40081,"ELEMENT_SET_NO":999,"REV_AT_EPOCH":21415,"BSTAR":0,"MEAN_MOTION_DOT":-2.6e-7,"MEAN_MOTION_DDOT":0},{"OBJECT_NAME":"O3B FM8","OBJECT_ID":"2014-038D","EPOCH":"2026-04-04T23:20:05.265024","MEAN_MOTION":5.00116032,"ECCENTRICITY":0.00026784,"INCLINATION":0.0543,"RA_OF_ASC_NODE":350.9758,"ARG_OF_PERICENTER":25.7452,"MEAN_ANOMALY":343.2866,"EPHEMERIS_TYPE":0,"CLASSIFICATION_TYPE":"U","NORAD_CAT_ID":40082,"ELEMENT_SET_NO":999,"REV_AT_EPOCH":21428,"BSTAR":0,"MEAN_MOTION_DOT":-2.6e-7,"MEAN_MOTION_DDOT":0},{"OBJECT_NAME":"O3B FM10","OBJECT_ID":"2014-083A","EPOCH":"2026-04-04T19:11:16.853568","MEAN_MOTION":5.00115376,"ECCENTRICITY":0.00026883,"INCLINATION":0.0434,"RA_OF_ASC_NODE":335.9114,"ARG_OF_PERICENTER":36.1585,"MEAN_ANOMALY":347.9352,"EPHEMERIS_TYPE":0,"CLASSIFICATION_TYPE":"U","NORAD_CAT_ID":40348,"ELEMENT_SET_NO":999,"REV_AT_EPOCH":20622,"BSTAR":0,"MEAN_MOTION_DOT":-2.6e-7,"MEAN_MOTION_DDOT":0},{"OBJECT_NAME":"O3B FM11","OBJECT_ID":"2014-083B","EPOCH":"2026-04-05T00:17:24.393696","MEAN_MOTION":5.00115634,"ECCENTRICITY":0.00030088,"INCLINATION":0.058,"RA_OF_ASC_NODE":0.0123,"ARG_OF_PERICENTER":1.2193,"MEAN_ANOMALY":358.7679,"EPHEMERIS_TYPE":0,"CLASSIFICATION_TYPE":"U","NORAD_CAT_ID":40349,"ELEMENT_SET_NO":999,"REV_AT_EPOCH":20625,"BSTAR":0,"MEAN_MOTION_DOT":-2.6e-7,"MEAN_MOTION_DDOT":0},{"OBJECT_NAME":"O3B FM12","OBJECT_ID":"2014-083C","EPOCH":"2026-04-05T00:56:23.572608","MEAN_MOTION":5.00115951,"ECCENTRICITY":0.00025834,"INCLINATION":0.0571,"RA_OF_ASC_NODE":359.5496,"ARG_OF_PERICENTER":10.9095,"MEAN_ANOMALY":349.5449,"EPHEMERIS_TYPE":0,"CLASSIFICATION_TYPE":"U","NORAD_CAT_ID":40350,"ELEMENT_SET_NO":999,"REV_AT_EPOCH":20626,"BSTAR":0,"MEAN_MOTION_DOT":-2.6e-7,"MEAN_MOTION_DDOT":0},{"OBJECT_NAME":"O3B FM9","OBJECT_ID":"2014-083D","EPOCH":"2026-04-03T06:24:26.823168","MEAN_MOTION":5.00115977,"ECCENTRICITY":0.00027068,"INCLINATION":0.0591,"RA_OF_ASC_NODE":0.1634,"ARG_OF_PERICENTER":11.5018,"MEAN_ANOMALY":348.3391,"EPHEMERIS_TYPE":0,"CLASSIFICATION_TYPE":"U","NORAD_CAT_ID":40351,"ELEMENT_SET_NO":999,"REV_AT_EPOCH":20632,"BSTAR":0,"MEAN_MOTION_DOT":-2.6e-7,"MEAN_MOTION_DDOT":0},{"OBJECT_NAME":"LEO 1 (LEO VANTAGE 1)","OBJECT_ID":"2018-004C","EPOCH":"2026-04-05T05:33:33.875712","MEAN_MOTION":14.67469248,"ECCENTRICITY":0.03505548,"INCLINATION":99.2453,"RA_OF_ASC_NODE":4.0062,"ARG_OF_PERICENTER":303.4715,"MEAN_ANOMALY":53.343,"EPHEMERIS_TYPE":0,"CLASSIFICATION_TYPE":"U","NORAD_CAT_ID":43113,"ELEMENT_SET_NO":999,"REV_AT_EPOCH":42678,"BSTAR":0.00035464869,"MEAN_MOTION_DOT":5.07e-5,"MEAN_MOTION_DDOT":0},{"OBJECT_NAME":"O3B FM15","OBJECT_ID":"2018-024A","EPOCH":"2026-04-02T03:13:32.937600","MEAN_MOTION":5.00115731,"ECCENTRICITY":0.0002633,"INCLINATION":0.0502,"RA_OF_ASC_NODE":3.1354,"ARG_OF_PERICENTER":6.1622,"MEAN_ANOMALY":350.7046,"EPHEMERIS_TYPE":0,"CLASSIFICATION_TYPE":"U","NORAD_CAT_ID":43231,"ELEMENT_SET_NO":999,"REV_AT_EPOCH":14722,"BSTAR":0,"MEAN_MOTION_DOT":-2.7e-7,"MEAN_MOTION_DDOT":0},{"OBJECT_NAME":"O3B FM16","OBJECT_ID":"2018-024B","EPOCH":"2026-04-05T04:26:35.089440","MEAN_MOTION":5.00116016,"ECCENTRICITY":0.00026966,"INCLINATION":0.0472,"RA_OF_ASC_NODE":6.5481,"ARG_OF_PERICENTER":4.2611,"MEAN_ANOMALY":349.1954,"EPHEMERIS_TYPE":0,"CLASSIFICATION_TYPE":"U","NORAD_CAT_ID":43232,"ELEMENT_SET_NO":999,"REV_AT_EPOCH":14728,"BSTAR":0,"MEAN_MOTION_DOT":-2.5e-7,"MEAN_MOTION_DDOT":0},{"OBJECT_NAME":"O3B FM14","OBJECT_ID":"2018-024C","EPOCH":"2026-04-04T19:49:36.543360","MEAN_MOTION":5.00115735,"ECCENTRICITY":0.00028503,"INCLINATION":0.0457,"RA_OF_ASC_NODE":6.0929,"ARG_OF_PERICENTER":8.8259,"MEAN_ANOMALY":345.0883,"EPHEMERIS_TYPE":0,"CLASSIFICATION_TYPE":"U","NORAD_CAT_ID":43233,"ELEMENT_SET_NO":999,"REV_AT_EPOCH":14728,"BSTAR":0,"MEAN_MOTION_DOT":-2.6e-7,"MEAN_MOTION_DDOT":0},{"OBJECT_NAME":"O3B FM13","OBJECT_ID":"2018-024D","EPOCH":"2026-03-25T16:44:28.678560","MEAN_MOTION":5.00115556,"ECCENTRICITY":0.00039678,"INCLINATION":0.047,"RA_OF_ASC_NODE":335.8508,"ARG_OF_PERICENTER":348.6026,"MEAN_ANOMALY":35.5167,"EPHEMERIS_TYPE":0,"CLASSIFICATION_TYPE":"U","NORAD_CAT_ID":43234,"ELEMENT_SET_NO":999,"REV_AT_EPOCH":14688,"BSTAR":0,"MEAN_MOTION_DOT":-2.4e-7,"MEAN_MOTION_DDOT":0}]
