O3B FM5                 
1 39188U 13031A   26094.88015919 -.00000026  00000+0  00000+0 0  9996
2 39188   0.1018   5.7561 0003227 358.3820 355.8634  5.00116539233370
O3B FM4                 
1 39189U 13031B   26086.40408870 -.00000028  00000+0  00000+0 0  9990
2 39189   0.0535 345.5776 0005068  27.4764 346.9547  5.00115128232953
O3B FM2                 
1 39190U 13031C   26094.86513521 -.00000026  00000+0  00000+0 0  9999
2 39190   0.0514 339.0477 0002770  33.0431 347.9145  5.00116057233441
O3B PFM                 
1 39191U 13031D   26095.07914012 -.00000025  00000+0  00000+0 0  9993
2 39191   0.0701   3.8026 0005400  16.8934 339.3246  5.00116068233018
O3B FM3                 
1 40079U 14038A   26094.54610808 -.00000026  00000+0  00000+0 0  9996
2 40079   0.0526 354.6808 0001028  86.2225 279.1068  5.00115652209363
O3B FM7                 
1 40080U 14038B   26093.89253109 -.00000026  00000+0  00000+0 0  9992
2 40080   0.0568 348.1667 0004276  10.6600   1.1706  5.00115689214164
O3B FM6                 
1 40081U 14038C   26094.91898349 -.00000026  00000+0  00000+0 0  9998
2 40081   0.0537 351.8755 0002640  21.2942 346.8359  5.00115747214157
O3B FM8                 
1 40082U 14038D   26094.97228316 -.00000026  00000+0  00000+0 0  9996
2 40082   0.0543 350.9758 0002678  25.7452 343.2866  5.00116032214280
O3B FM10                
1 40348U 14083A   26094.79950062 -.00000026  00000+0  00000+0 0  9991
2 40348   0.0434 335.9114 0002688  36.1585 347.9352  5.00115376206223
O3B FM11                
1 40349U 14083B   26095.01208789 -.00000026  00000+0  00000+0 0  9990
2 40349   0.0580   0.0123 0003008   1.2193 358.7679  5.00115634206253
O3B FM12                
1 40350U 14083C   26095.03916172 -.00000026  00000+0  00000+0 0  9996
2 40350   0.0571 359.5496 0002583  10.9095 349.5449  5.00115951206261
O3B FM9                 
1 40351U 14083D   26093.26697712 -.00000026  00000+0  00000+0 0  9996
2 40351   0.0591   0.1634 0002706  11.5018 348.3391  5.00115977206324
LEO 1 (LEO VANTAGE 1)   
1 43113U 18004C   26095.23164208  .00005070  00000+0  35465-3 0  9990
2 43113  99.2453   4.0062 0350554 303.4715  53.3430 14.67469248426789
O3B FM15                
1 43231U 18024A   26092.13440900 -.00000027  00000+0  00000+0 0  9996
2 43231   0.0502   3.1354 0002633   6.1622 350.7046  5.00115731147223
O3B FM16                
1 43232U 18024B   26095.18512835 -.00000025  00000+0  00000+0 0  9990
2 43232   0.0472   6.5481 0002696   4.2611 349.1954  5.00116016147287
O3B FM14                
1 43233U 18024C   26094.82611740 -.00000026  00000+0  00000+0 0  9997
2 43233   0.0457   6.0929 0002850   8.8259 345.0883  5.00115735147286
O3B FM13                
1 43234U 18024D   26084.69755415 -.00000024  00000+0  00000+0 0  9998
2 43234   0.0470 335.8508 0003967 348.6026  35.5167  5.00115556146887
